RADUGA 1 [-]            
1 08513U 75123A   22025.78728373 -.00000108  00000+0  00000+0 0  9999
2 08513   6.8973 290.5340 0006407 211.8755 345.6133  1.00248790178733
RADUGA 2 [-]            
1 09416U 76092A   22025.85583733  .00000037  00000+0  00000+0 0  9995
2 09416   7.5565 292.4669 0027289 354.0195 210.4198  1.00266686113255
RADUGA 3 [-]            
1 10159U 77071A   22025.71977213 -.00000299  00000+0  00000+0 0  9995
2 10159   8.1688 294.9786 0007980 233.5172 316.6961  1.00332248160968
RADUGA 4 [-]            
1 10987U 78073A   22025.85653506  .00000020  00000+0  00000+0 0  9999
2 10987   8.7818 298.3417 0009316 359.2531 202.9137  1.00194864103528
RADUGA 5 [-]            
1 11343U 79035A   22026.08572993 -.00000077  00000+0  00000+0 0  9994
2 11343   9.2336 300.9984 0005723 153.2887 137.0884  1.00296575113248
RADUGA 6 [-]            
1 11708U 80016A   22025.85208692  .00000152  00000+0  00000+0 0  9999
2 11708   9.5813 303.9548 0001602 176.7269 355.7627  1.00243411106080
RADUGA 7 [-]            
1 12003U 80081A   22025.55157248 -.00000259  00000+0  00000+0 0  9996
2 12003   9.7611 305.8429 0009145 266.7520  42.8734  1.00362114107228
RADUGA 8 [-]            
1 12351U 81027A   22025.55641229  .00000034  00000+0  00000+0 0  9990
2 12351  10.0881 306.4538 0081647 223.2278 156.8156  1.00358156106450
RADUGA 9 [-]            
1 12618U 81069A   22025.97840549  .00000162  00000+0  00000+0 0  9996
2 12618  10.2930 309.2806 0003380 117.6677  89.1833  1.00237684112256
RADUGA 10 [-]           
1 12897U 81102A   22025.82215714  .00000000  00000+0  00000+0 0  9998
2 12897  10.3760 310.2195 0004647 166.5333  11.0070  1.00286473101265
RADUGA 11 [-]           
1 13669U 82113A   22025.39880155 -.00000047  00000+0  00000+0 0  9990
2 13669  12.3551 323.5090 0037150 250.2074 328.5901  0.97707901105860
RADUGA 12 [-]           
1 13974U 83028A   22025.85766890 -.00000053  00000+0  00000+0 0  9992
2 13974  11.4657 319.7354 0003362  78.0005 108.6466  1.00249628153301
RADUGA 13 [-]           
1 14307U 83088A   22024.98539424 -.00000127  00000+0  00000+0 0  9995
2 14307  12.5915 325.0785 0016879  38.8450 132.3037  0.98174864103199
RADUGA 14 [-]           
1 14725U 84016A   22025.85749446 -.00000065  00000+0  00000+0 0  9996
2 14725  11.6496 323.3895 0004328 112.1203  70.1258  1.00298149102020
RADUGA 15 [-]           
1 15057U 84063A   22025.91402492  .00000042  00000+0  00000+0 0  9995
2 15057  11.7654 324.3753 0004456 137.5272  50.0339  1.00372366125025
RADUGA 16 [-]           
1 15946U 85070A   22026.48029602  .00000122  00000+0  00000+0 0  9991
2 15946  12.1905 328.9608 0001468 101.3417  78.0332  1.00200013106149
RADUGA 17 [-]           
1 16250U 85107A   22025.55763333  .00000028  00000+0  00000+0 0  9999
2 16250  12.3077 330.3201 0011547 176.1923 186.8365  1.00174603135610
RADUGA 18 [-]           
1 16497U 86007A   22025.46213858  .00000027  00000+0  00000+0 0  9993
2 16497  13.0996 332.9810 0073720 159.5901  52.4736  0.98810849130011
RADUGA 19 [-]           
1 17046U 86082A   22025.78052243 -.00000134  00000+0  00000+0 0  9991
2 17046  13.4957 336.8466 0011971 137.1410  49.5864  0.98460341127125
RADUGA 20 [-]           
1 17611U 87028A   22026.49823861 -.00000083  00000+0  00000+0 0  9994
2 17611  15.4869 340.3840 0029419 130.3918  64.6799  0.95961196122915
RADUGA 21 [-]           
1 18631U 87100A   22025.54316397  .00000062  00000+0  00000+0 0  9990
2 18631  13.5680 337.8335 0003416  98.9785 112.3580  1.00196991124997
RADUGA 22 [-]           
1 19596U 88095A   22025.88462331 -.00000353  00000+0  00000+0 0  9996
2 19596  13.5174 342.0319 0005478 117.3448 109.9409  1.00323770105626
RADUGA 23 [-]           
1 19928U 89030A   22025.99413576  .00000135  00000+0  00000+0 0  9991
2 19928  13.6433 343.8246 0019919 154.9803  21.1428  1.00225321118767
RADUGA-1 1 [-]          
1 20083U 89048A   22025.67581653 -.00000189  00000+0  00000+0 0  9991
2 20083  14.3752 346.8344 0022188 105.9058  95.4640  0.98710834115441
RADUGA 24 [-]           
1 20367U 89098A   22025.86386140 -.00000332  00000+0  00000+0 0  9996
2 20367  14.2009 346.1254 0001752  84.1816 110.0609  1.00256156116892
RADUGA 25 [-]           
1 20499U 90016A   22025.29142416 -.00000234  00000+0  00000+0 0  9998
2 20499  13.9655 346.7483 0003859 116.4983  94.9347  1.00262596116822
RADUGA 26 [-]           
1 21016U 90112A   22025.50952024  .00000058  00000+0  00000+0 0  9992
2 21016  14.2439 349.9920 0007802  75.3268 299.6865  1.00244949114182
RADUGA-1 2 [-]          
1 21038U 90116A   22025.42846307 -.00000135  00000+0  00000+0 0  9994
2 21038  14.2816 350.0661 0008876  87.0405 281.7792  1.00215630 31268
RADUGA 27 [-]           
1 21132U 91014A   22025.49378956  .00000112  00000+0  00000+0 0  9998
2 21132  14.7949 349.7022 0004476  64.3730 295.7936  1.00185426113223
RADUGA 28 [-]           
1 21821U 91087A   22025.79391233 -.00000365  00000+0  00000+0 0  9990
2 21821  14.5294 353.3445 0006521 103.3179  66.7820  1.00313449110248
RADUGA 29 [-]           
1 22557U 93013A   22026.16089521  .00000047  00000+0  00000+0 0  9990
2 22557  14.6872 357.5115 0007166  91.5746 104.7730  1.00263664105613
RADUGA 30 [-]           
1 22836U 93062A   22025.42872472 -.00000160  00000+0  00000+0 0  9994
2 22836  14.7106 359.4658 0003294 353.4501   7.0647  1.00276594103698
RADUGA-1 3 [-]          
1 22981U 94008A   22026.08533640 -.00000200  00000+0  00000+0 0  9995
2 22981  14.7779   0.6212 0003677  66.0547 173.4163  1.00327038102430
RADUGA 31 [-]           
1 23010U 94012A   22025.99657788  .00000098  00000+0  00000+0 0  9997
2 23010  14.7431   0.6134 0005844  73.3972  99.1484  1.00236778102264
RADUGA 32 [-]           
1 23448U 94087A   22020.47636646 -.00000145  00000+0  00000+0 0  9996
2 23448  14.7008   3.3503 0003310 204.7469 162.9236  1.00277706116755
RADUGA-1 4 [-]          
1 25642U 99010A   22025.56722734  .00000065  00000+0  00000+0 0  9994
2 25642  15.1404  14.9809 0002965 296.2508  73.7112  1.00201911 83873
RADUGA-1 5 [-]          
1 26477U 00049A   22025.49902265 -.00000074  00000+0  00000+0 0  9997
2 26477  13.0413  19.5414 0006002  40.1307 318.3797  1.00204354 78335
RADUGA-1 6 [-]          
1 26936U 01045A   22025.83638764 -.00000156  00000+0  00000+0 0  9993
2 26936  13.1410  25.7732 0014074 159.8450 206.8595  0.97745497 72930
RADUGA-1 7 [-]          
1 28194U 04010A   22025.44781477 -.00000357  00000+0  00000+0 0  9996
2 28194  11.8040  32.6990 0001354 284.4112  76.9579  1.00351906 65339
RADUGA-1M 1 [-]         
1 32373U 07058A   22025.61214476 -.00000121  00000+0  00000+0 0  9993
2 32373   6.5801  65.0478 0003483 317.9660 243.7158  0.99394612 36451
RADUGA-1 8 [-]          
1 34264U 09010A   22025.83821922 -.00000237  00000+0  00000+0 0  9996
2 34264   8.9473  55.1994 0014764 353.5248 352.9820  0.99830251 47161
RADUGA-1M 2 [+]         
1 36358U 10002A   22025.89715236 -.00000173  00000+0  00000+0 0  9990
2 36358   0.0758 255.8816 0001991  34.6640 242.5886  1.00273147 34013
RADUGA-1M 3 [+]         
1 39375U 13062A   22025.92194877  .00000165  00000+0  00000+0 0  9997
2 39375   1.8783  91.4935 0003276  71.7634 328.7829  1.00272702 30051
